CCSDS_OMM_VERS,COMMENT,CREATION_DATE,ORIGINATOR,OBJECT_NAME,OBJECT_ID,CENTER_NAME,REF_FRAME,TIME_SYSTEM,MEAN_ELEMENT_THEORY,EPOCH,MEAN_MOTION,ECCENTRICITY,INCLINATION,RA_OF_ASC_NODE,ARG_OF_PERICENTER,MEAN_ANOMALY,EPHEMERIS_TYPE,CLASSIFICATION_TYPE,NORAD_CAT_ID,ELEMENT_SET_NO,REV_AT_EPOCH,BSTAR,MEAN_MOTION_DOT,MEAN_MOTION_DDOT,SEMIMAJOR_AXIS,PERIOD,APOAPSIS,PERIAPSIS,OBJECT_TYPE,RCS_SIZE,COUNTRY_CODE,LAUNCH_DATE,SITE,DECAY_DATE,FILE,GP_ID,TLE_LINE0,TLE_LINE1,TLE_LINE2,NORAD_KEY,JCAT,DeepCat,Satcat,Piece,Active,Type,Name,LDate,Parent,Owner,State,SDate,ExpandedStatus,DDate,ODate,Period,Perigee,PF,Apogee,AF,Inc,IF,OpOrbit,SATCAT_KEY
3.0,GENERATED VIA SPACE-TRACK.ORG API,2026-05-06T02:32:52,18 SPCS,DIRECTV 6 (TEMPO 2),1997-011A,EARTH,TEME,UTC,SGP4,2026-05-05T15:24:50.258304,0.99029857,0.00278697,13.0773,23.0638,322.6222,218.8491,0,U,24748,999,10606,0.00000000000000,-0.00000155,0.0000000000000,42516.523,1454.107,36256.88,36019.896,PAYLOAD,LARGE,US,1997-03-08,AFETR,,5176277,322216011,0 DIRECTV 6 (TEMPO 2),1 24748U 97011A   26125.64224836 -.00000155  00000-0  00000-0 0  9996,2 24748  13.0773  23.0638 0027870 322.6222 218.8491  0.99029857106068,24748,S24748,-,24748,1997-011A,P,P,DirecTV-6,1997 Mar  8,S24749,DTVT,US,1997 Mar  8 0629,In Earth orbit,-,2026 May  5 ,    1454.104 ,   36019, ,   36256, , 13.08 , ,GEO/ID,24748
3.0,GENERATED VIA SPACE-TRACK.ORG API,2026-05-06T14:56:52,18 SPCS,GOES 10,1997-019A,EARTH,TEME,UTC,SGP4,2026-05-06T08:48:38.761056,0.99126792,0.0029455,13.0786,21.3949,239.0977,291.6288,0,U,24786,999,10565,0.00000000000000,-0.00000060,0.0000000000000,42488.801,1452.685,36235.817,35985.515,PAYLOAD,LARGE,US,1997-04-25,AFETR,,5177539,322306667,0 GOES 10,1 24786U 97019A   26126.36711529 -.00000060  00000-0  00000+0 0  9990,2 24786  13.0786  21.3949 0029455 239.0977 291.6288  0.99126792105652,24786,S24786,-,24786,1997-019A,P,P,GOES 10,1997 Apr 25,S24787,NOAA,US,1997 Apr 25 0618,In Earth orbit,-,2026 May  4 ,    1452.696 ,   35985, ,   36236, , 13.08 , ,GEO/ID,24786
3.0,GENERATED VIA SPACE-TRACK.ORG API,2026-05-06T14:56:52,18 SPCS,INTELSAT 804,1997-083A,EARTH,TEME,UTC,SGP4,2026-05-06T12:14:05.384256,1.0026518,0.0009925,13.1107,17.9426,20.9791,174.6507,0,U,25110,999,10391,0.00000000000000,-0.00000076,0.0000000000000,42166.584,1436.192,35830.299,35746.598,PAYLOAD,LARGE,ITSO,1997-12-21,FRGUI,,5177549,322306291,0 INTELSAT 804,1 25110U 97083A   26126.50978454 -.00000076  00000-0  00000+0 0  9998,2 25110  13.1107  17.9426 0009925  20.9791 174.6507  1.00265180103913,25110,S25110,-,25110,1997-083A,P,P,INTELSAT 804,1997 Dec 22,S25111,SESINTU,US,1997 Dec 22 0037,In Earth orbit,-,2026 May  4 ,    1436.194 ,   35746, ,   35830, , 13.11 , ,GEO/I,25110
3.0,GENERATED VIA SPACE-TRACK.ORG API,2026-05-06T14:46:56,18 SPCS,SKYNET 4B,1988-109A,EARTH,TEME,UTC,SGP4,2026-05-06T12:30:50.910048,0.99666586,0.0005276,13.1408,337.2062,323.8068,21.0004,0,U,19687,999,11774,0.00000000000000,-0.00000111,0.0000000000000,42335.249,1444.817,35979.45,35934.778,PAYLOAD,LARGE,UK,1988-12-11,FRGUI,,5177318,322301373,0 SKYNET 4B,1 19687U 88109A   26126.52142257 -.00000111  00000-0  00000+0 0  9995,2 19687  13.1408 337.2062 0005276 323.8068  21.0004  0.99666586117745,19687,S19687,-,19687,1988-109A,P,P,Skynet 4B,1988 Dec 11,S19690,MOD,UK,1988 Dec 11 0053,In Earth orbit,-,2026 May  5 ,    1444.813 ,   35934, ,   35979, , 13.14 , ,GEO/ID,19687
3.0,GENERATED VIA SPACE-TRACK.ORG API,2026-05-06T14:56:52,18 SPCS,COSMOS 2155,1991-064A,EARTH,TEME,UTC,SGP4,2026-05-06T06:32:38.730336,1.00193608,0.0002276,13.1558,339.5822,262.259,285.4606,0,U,21702,999,12691,0.00000000000000,0.00000111,0.0000000000000,42186.662,1437.217,35818.129,35798.925,PAYLOAD,LARGE,CIS,1991-09-13,TTMTR,,5177456,322304069,0 COSMOS 2155,1 21702U 91064A   26126.27267049  .00000111  00000-0  00000+0 0  9998,2 21702  13.1558 339.5822 0002276 262.2590 285.4606  1.00193608126910,21702,S21702,-,21702,1991-064A,P,P,Kosmos-2155,1991 Sep 13,S21703,PVO,SU,1991 Sep 14 0737?,In Earth orbit,-,2026 May  5 ,    1437.224 ,   35799, ,   35818, , 13.16 , ,GEO/ID,21702
3.0,GENERATED VIA SPACE-TRACK.ORG API,2026-05-06T07:56:53,18 SPCS,NSTAR A,1995-044A,EARTH,TEME,UTC,SGP4,2026-05-05T22:08:38.655168,0.99130176,0.0023577,13.1595,21.6419,8.9546,181.8274,0,U,23651,999,11149,0.00000000000000,-0.00000086,0.0000000000000,42487.834,1452.635,36209.872,36009.525,PAYLOAD,LARGE,JPN,1995-08-29,FRGUI,,5176704,322253194,0 NSTAR A,1 23651U 95044A   26125.92266962 -.00000086  00000-0  00000+0 0  9991,2 23651  13.1595  21.6419 0023577   8.9546 181.8274  0.99130176111495,23651,S23651,-,23651,1995-044A,P,P,N-STAR a,1995 Aug 29,S23652,NTT,J,1995 Aug 29 0702,In Earth orbit,-,2026 May  4 ,    1452.641 ,   36009, ,   36209, , 13.16 , ,GEO/ID,23651
3.0,GENERATED VIA SPACE-TRACK.ORG API,2026-05-06T14:46:56,18 SPCS,WESTAR 5,1982-058A,EARTH,TEME,UTC,SGP4,2026-05-06T12:24:23.843232,0.99218779,0.0016879,13.1673,337.5118,280.542,297.3698,0,U,13269,999,11912,0.00000000000000,-0.00000311,0.0000000000000,42462.535,1451.338,36156.073,36012.728,PAYLOAD,LARGE,US,1982-06-09,AFETR,,5177245,322299919,0 WESTAR 5,1 13269U 82058A   26126.51694263 -.00000311  00000-0  00000+0 0  9992,2 13269  13.1673 337.5118 0016879 280.5420 297.3698  0.99218779119124,13269,S13269,-,13269,1982-058A,P,P,Westar 5,1982 Jun  9,S13294,WUTC,US,1982 Jun  9 0105,In Earth orbit,-,2026 May  4 ,    1451.333 ,   36012, ,   36156, , 13.17 , ,GEO/ID,13269
3.0,GENERATED VIA SPACE-TRACK.ORG API,2026-05-06T14:56:52,18 SPCS,PALAPA B4,1992-027A,EARTH,TEME,UTC,SGP4,2026-05-06T11:24:58.426272,0.99928957,0.00033,13.1983,17.6009,2.5186,100.495,0,U,21964,999,4677,0.00000000000000,-0.00000120,0.0000000000000,42261.114,1441.024,35896.925,35869.033,PAYLOAD,LARGE,INDO,1992-05-14,AFETR,,5177462,322304146,0 PALAPA B4,1 21964U 92027A   26126.47567623 -.00000120  00000-0  00000+0 0  9992,2 21964  13.1983  17.6009 0003300   2.5186 100.4950  0.99928957 46771,21964,S21964,-,21964,1992-027A,P,P,Palapa B4,1992 May 14,S21966,TELK,ID,1992 May 14 0201?,In Earth orbit,-,2026 May  4 ,    1441.019 ,   35868, ,   35896, , 13.20 , ,GEO/ID,21964
3.0,GENERATED VIA SPACE-TRACK.ORG API,2026-05-06T02:32:52,18 SPCS,COSMOS 2379,2001-037A,EARTH,TEME,UTC,SGP4,2026-05-05T14:04:27.493248,1.00292055,0.0005442,13.2269,14.5906,242.7044,309.2601,0,U,26892,999,9043,0.00000000000000,-0.00000335,0.0000000000000,42159.05,1435.807,35803.858,35757.973,PAYLOAD,LARGE,CIS,2001-08-24,TTMTR,,5176277,322217464,0 COSMOS 2379,1 26892U 01037A   26125.58642932 -.00000335  00000-0  00000-0 0  9995,2 26892  13.2269  14.5906 0005442 242.7044 309.2601  1.00292055 90436,26892,S26892,-,26892,2001-037A,P,P,Kosmos-2379,2001 Aug 24,S26895,PVO,RU,2001 Aug 24 0312,In Earth orbit,-,2026 May  4 ,    1435.800 ,   35757, ,   35803, , 13.23 , ,GEO/I,26892
3.0,GENERATED VIA SPACE-TRACK.ORG API,2026-05-06T10:08:52,18 SPCS,FENGYUN 2B,2000-032A,EARTH,TEME,UTC,SGP4,2026-05-05T21:43:47.881056,1.00103556,0.00049011,13.2313,17.2196,291.5618,238.8786,0,U,26382,999,9450,0.00000000000000,-0.00000067,0.0000000000000,42211.959,1438.51,35854.512,35813.135,PAYLOAD,LARGE,PRC,2000-06-25,XSC,,5176958,322266045,0 FENGYUN 2B,1 26382U 00032A   26125.90541529 -.00000067  00000-0  00000-0 0  9991,2 26382  13.2313  17.2196 0004901 291.5618 238.8786  1.00103556 94509,26382,S26382,-,26382,2000-032A,P,P,Feng Yun 2B,2000 Jun 25,S26383,NSMC,CN,2000 Jun 25 1214,In Earth orbit,-,2026 May  4 ,    1438.513 ,   35813, ,   35854, , 13.23 , ,GEO/ID,26382
3.0,GENERATED VIA SPACE-TRACK.ORG API,2026-05-06T14:56:52,18 SPCS,INTELSAT 511,1985-055A,EARTH,TEME,UTC,SGP4,2026-05-06T08:56:38.464224,1.00116744,0.0013359,13.2337,339.0527,89.0126,86.7248,0,U,15873,999,12409,0.00000000000000,-0.00000190,0.0000000000000,42208.252,1438.321,35886.503,35773.731,PAYLOAD,LARGE,ITSO,1985-06-30,AFETR,,5177375,322302546,0 INTELSAT 511,1 15873U 85055A   26126.37266741 -.00000190  00000-0  00000+0 0  9990,2 15873  13.2337 339.0527 0013359  89.0126  86.7248  1.00116744124096,15873,S15873,-,15873,1985-055A,P,P,INTELSAT 511,1985 Jun 30,S15874,SESINTU,US,1985 Jun 30 0110,In Earth orbit,-,2026 May  4 ,    1438.317 ,   35773, ,   35886, , 13.24 , ,GEO/ID,15873
3.0,GENERATED VIA SPACE-TRACK.ORG API,2026-05-06T02:32:52,18 SPCS,SATCOM 1R,1983-030A,EARTH,TEME,UTC,SGP4,2026-05-05T06:23:59.298720,0.99858172,0.00064576,13.2438,338.828,115.8524,237.5343,0,U,13984,999,13004,0.00000000000000,-0.00000002,0.0000000000000,42281.083,1442.045,35930.251,35875.644,PAYLOAD,LARGE,US,1983-04-11,AFETR,,5176277,322213024,0 SATCOM 1R,1 13984U 83030A   26125.26665855 -.00000002  00000-0  00000-0 0  9991,2 13984  13.2438 338.8280 0006458 115.8524 237.5343  0.99858172130043,13984,S13984,-,13984,1983-030A,P,P      G,Satcom 1R,1983 Apr 11,S13990,SESSAP,US,1983 Apr 11 2304,In Earth orbit,-,2026 May  4 ,    1442.049 ,   35876, ,   35929, , 13.25 , ,GEO/ID,13984
3.0,GENERATED VIA SPACE-TRACK.ORG API,2026-05-06T14:56:52,18 SPCS,GALAXY 3R,1995-069A,EARTH,TEME,UTC,SGP4,2026-05-06T07:34:35.806944,1.00323543,0.0003343,13.2504,16.5496,51.5679,151.8613,0,U,23741,999,11139,0.00000000000000,-0.00000032,0.0000000000000,42150.229,1435.356,35786.184,35758.003,PAYLOAD,LARGE,US,1995-12-15,AFETR,,5177518,322305339,0 GALAXY 3R,1 23741U 95069A   26126.31569221 -.00000032  00000-0  00000+0 0  9997,2 23741  13.2504  16.5496 0003343  51.5679 151.8613  1.00323543111392,23741,S23741,-,23741,1995-069A,P,P,Anik E2R,1995 Dec 15,S23742,TCANL,CA,1995 Dec 15 0050?,In Earth orbit,-,2026 May  5 ,    1435.358 ,   35758, ,   35786, , 13.25 , ,GEO/ID,23741
